STARLINK-5918           
1 55939U 23037AB  26162.97266132  .00000365  00000+0  38383-4 0  9991
2 55939  69.9998  46.7084 0002959 268.9473  91.1347 14.98329788178107
STARLINK-5864           
1 55940U 23037AC  26162.91007541 -.00000040  00000+0  44641-5 0  9990
2 55940  69.9998  46.8918 0002792 270.2766  89.8073 14.98330598178091
STARLINK-5914           
1 55941U 23037AD  26162.93511096 -.00001042  00000+0 -79536-4 0  9992
2 55941  70.0014  46.9773 0002365 270.9948  89.0940 14.98338584178097
STARLINK-5917           
1 55942U 23037AE  26162.95179043  .00000194  00000+0  24028-4 0  9998
2 55942  70.0002  46.6336 0002978 269.3343  90.7475 14.98329584178102
STARLINK-5932           
1 55943U 23037AF  26162.96013785  .00000345  00000+0  36691-4 0  9997
2 55943  69.9998  46.6539 0003048 269.3301  90.7509 14.98328239178106
STARLINK-5926           
1 55944U 23037AG  26162.95596514  .00000336  00000+0  35938-4 0  9996
2 55944  70.0002  46.6479 0002996 269.3503  90.7313 14.98328064178103
STARLINK-5925           
1 55945U 23037AH  26162.96447925  .00000006  00000+0  83382-5 0  9990
2 55945  70.0000  46.6790 0002976 268.0325  92.0493 14.98328810178107
STARLINK-5857           
1 55946U 23037AJ  26162.96431300  .00000141  00000+0  19577-4 0  9995
2 55946  69.9997  46.6783 0002981 269.8925  90.1892 14.98329091178095
STARLINK-5900           
1 55948U 23037AL  26162.90984628 -.00005721  00000+0 -47182-3 0  9990
2 55948  70.0003  27.0083 0002995 273.9832  86.0985 14.98350275178581
STARLINK-5899           
1 55949U 23037AM  26162.91820234  .00000178  00000+0  22678-4 0  9997
2 55949  69.9997  27.0391 0002823 261.3470  98.7369 14.98340867178584
STARLINK-5911           
1 55950U 23037AN  26162.97243691  .00000408  00000+0  41967-4 0  9999
2 55950  70.0002  26.8261 0002973 269.5981  90.4838 14.98329870178594
STARLINK-5908           
1 55951U 23037AP  26162.94761626 -.00000078  00000+0  12968-5 0  9994
2 55951  70.0002  46.6185 0003002 269.2971  90.7844 14.98328095178105
STARLINK-5893           
1 55952U 23037AQ  26162.91001708 -.00000067  00000+0  21900-5 0  9994
2 55952  70.0001  27.0106 0002893 270.2377  89.8451 14.98330237178586
STARLINK-5892           
1 55954U 23037AS  26162.94739623  .00000988  00000+0  90589-4 0  9992
2 55954  69.9993  26.7394 0003085 265.3282  94.7525 14.98328792178595
STARLINK-5878           
1 55955U 23037AT  26162.96410136  .00000906  00000+0  83676-4 0  9999
2 55955  69.9999  26.7968 0002872 265.7797  94.3033 14.98336732178590
STARLINK-5883           
1 55956U 23037AU  26162.93904339 -.00000097  00000+0 -37324-6 0  9994
2 55956  69.9994  26.7099 0002968 267.8396  92.2423 14.98329698178598
STARLINK-5884           
1 55957U 23037AV  26162.96826297  .00000491  00000+0  48940-4 0  9994
2 55957  70.0000  26.8113 0002997 268.9706  91.1109 14.98329061178590
STARLINK-5928           
1 55958U 23037AW  26162.95991837 -.00000176  00000+0 -69890-5 0  9997
2 55958  69.9996  26.7832 0003031 269.4307  90.6505 14.98325656178592
STARLINK-5929           
1 55959U 23037AX  26162.95574154 -.00000104  00000+0 -95067-6 0  9994
2 55959  69.9996  26.7680 0002907 269.2987  90.7839 14.98329057178597
STARLINK-5938           
1 55960U 23037AY  26162.96843035  .00001067  00000+0  97178-4 0  9994
2 55960  70.0001  26.7938 0002986 270.7318  89.3499 14.98334272178598
STARLINK-5933           
1 55961U 23037AZ  26162.94321862 -.00000096  00000+0 -22146-6 0  9990
2 55961  69.9993  26.7240 0002932 269.5303  90.5520 14.98328344178595
STARLINK-5906           
1 55962U 23037BA  26162.91402624  .00001021  00000+0  93378-4 0  9994
2 55962  69.9999  27.0178 0003037 269.3541  90.7270 14.98335884178585
STARLINK-5924           
1 55963U 23037BB  26162.95156763 -.00000170  00000+0 -64744-5 0  9991
2 55963  69.9994  26.7539 0002864 269.3457  90.7374 14.98327983178598
STARLINK-5895           
1 55964U 23037BC  26162.93548093  .00011907  00000+0  72903-3 0  9993
2 55964  69.9969  19.0378 0004654 200.0068 160.0915 15.10363357178789
STARLINK-5894           
1 55965U 23037BD  26162.93486902 -.00000539  00000+0 -37388-4 0  9994
2 55965  69.9997  26.6948 0002857 267.9069  92.1763 14.98331757178593
SES-18                  
1 55970U 23038A   26162.88797140 -.00000085  00000+0  00000+0 0  9995
2 55970   0.0248 287.1701 0000220  22.6944 166.9375  1.00271143 12053
SES-19                  
1 55971U 23038B   26162.73905659  .00000104  00000+0  00000+0 0  9997
2 55971   0.0128 322.8160 0001531 122.6236 305.8090  1.00272382 12030
TIANMU-1 03             
1 55973U 23039A   26162.94089105  .00013740  00000+0  27257-3 0  9999
2 55973  97.5227 336.7059 0004224 112.1193 248.0506 15.47136632180020
TIANMU-1 04             
1 55974U 23039B   26162.93238645  .00014816  00000+0  28774-3 0  9994
2 55974  97.5165 335.8504 0004791 109.2263 250.9506 15.47730901180033
TIANMU-1 05             
1 55975U 23039C   26162.92140630  .00013919  00000+0  27680-3 0  9998
2 55975  97.5208 336.3026 0003837 126.7064 233.4539 15.47062715180000
