OBJECT_NAME,OBJECT_ID,EPOCH,MEAN_MOTION,ECCENTRICITY,INCLINATION,RA_OF_ASC_NODE,ARG_OF_PERICENTER,MEAN_ANOMALY,EPHEMERIS_TYPE,CLASSIFICATION_TYPE,NORAD_CAT_ID,ELEMENT_SET_NO,REV_AT_EPOCH,BSTAR,MEAN_MOTION_DOT,MEAN_MOTION_DDOT
STARLINK-5918,2023-037AB,2026-06-11T23:20:37.938048,14.98329788,.00029594,69.9998,46.7084,268.9473,91.1347,0,U,55939,999,17810,.38382786E-4,.365E-5,0
STARLINK-5864,2023-037AC,2026-06-11T21:50:30.515424,14.98330598,.00027924,69.9998,46.8918,270.2766,89.8073,0,U,55940,999,17809,.4464075E-5,-.4E-6,0
STARLINK-5914,2023-037AD,2026-06-11T22:26:33.586944,14.98338584,.0002365,70.0014,46.9773,270.9948,89.0940,0,U,55941,999,17809,-.7953581E-4,-.1042E-4,0
STARLINK-5917,2023-037AE,2026-06-11T22:50:34.693152,14.98329584,.00029785,70.0002,46.6336,269.3343,90.7475,0,U,55942,999,17810,.24027628E-4,.194E-5,0
STARLINK-5932,2023-037AF,2026-06-11T23:02:35.910240,14.98328239,.00030488,69.9998,46.6539,269.3301,90.7509,0,U,55943,999,17810,.36691365E-4,.345E-5,0
STARLINK-5926,2023-037AG,2026-06-11T22:56:35.388096,14.98328064,.0002996,70.0002,46.6479,269.3503,90.7313,0,U,55944,999,17810,.35937538E-4,.336E-5,0
STARLINK-5925,2023-037AH,2026-06-11T23:08:51.007200,14.98328810,.00029766,70.0000,46.6790,268.0325,92.0493,0,U,55945,999,17810,.8338163E-5,.6E-7,0
STARLINK-5857,2023-037AJ,2026-06-11T23:08:36.643200,14.98329091,.00029814,69.9997,46.6783,269.8925,90.1892,0,U,55946,999,17809,.19576682E-4,.141E-5,0
STARLINK-5900,2023-037AL,2026-06-11T21:50:10.718592,14.98350275,.00029957,70.0003,27.0083,273.9832,86.0985,0,U,55948,999,17858,-.4718201E-3,-.5721E-4,0
STARLINK-5899,2023-037AM,2026-06-11T22:02:12.682176,14.98340867,.00028235,69.9997,27.0391,261.3470,98.7369,0,U,55949,999,17858,.22678466E-4,.178E-5,0
STARLINK-5911,2023-037AN,2026-06-11T23:20:18.549024,14.98329870,.00029738,70.0002,26.8261,269.5981,90.4838,0,U,55950,999,17859,.41967236E-4,.408E-5,0
STARLINK-5908,2023-037AP,2026-06-11T22:44:34.044864,14.98328095,.00030026,70.0002,46.6185,269.2971,90.7844,0,U,55951,999,17810,.1296831E-5,-.78E-6,0
STARLINK-5893,2023-037AQ,2026-06-11T21:50:25.475712,14.98330237,.00028934,70.0001,27.0106,270.2377,89.8451,0,U,55952,999,17858,.2190034E-5,-.67E-6,0
STARLINK-5892,2023-037AS,2026-06-11T22:44:15.034272,14.98328792,.00030857,69.9993,26.7394,265.3282,94.7525,0,U,55954,999,17859,.90589304E-4,.988E-5,0
STARLINK-5878,2023-037AT,2026-06-11T23:08:18.357504,14.98336732,.00028725,69.9999,26.7968,265.7797,94.3033,0,U,55955,999,17859,.83675644E-4,.906E-5,0
STARLINK-5883,2023-037AU,2026-06-11T22:32:13.348896,14.98329698,.00029681,69.9994,26.7099,267.8396,92.2423,0,U,55956,999,17859,-.373242E-6,-.97E-6,0
STARLINK-5884,2023-037AV,2026-06-11T23:14:17.920608,14.98329061,.00029978,70.0000,26.8113,268.9706,91.1109,0,U,55957,999,17859,.48939955E-4,.491E-5,0
STARLINK-5928,2023-037AW,2026-06-11T23:02:16.947168,14.98325656,.00030317,69.9996,26.7832,269.4307,90.6505,0,U,55958,999,17859,-.6988974E-5,-.176E-5,0
STARLINK-5929,2023-037AX,2026-06-11T22:56:16.069056,14.98329057,.00029077,69.9996,26.7680,269.2987,90.7839,0,U,55959,999,17859,-.950669E-6,-.104E-5,0
STARLINK-5938,2023-037AY,2026-06-11T23:14:32.382240,14.98334272,.00029867,70.0001,26.7938,270.7318,89.3499,0,U,55960,999,17859,.97177902E-4,.1067E-4,0
STARLINK-5933,2023-037AZ,2026-06-11T22:38:14.088768,14.98328344,.00029324,69.9993,26.7240,269.5303,90.5520,0,U,55961,999,17859,-.221457E-6,-.96E-6,0
STARLINK-5906,2023-037BA,2026-06-11T21:56:11.867136,14.98335884,.00030375,69.9999,27.0178,269.3541,90.7270,0,U,55962,999,17858,.93377858E-4,.1021E-4,0
STARLINK-5924,2023-037BB,2026-06-11T22:50:15.443232,14.98327983,.0002864,69.9994,26.7539,269.3457,90.7374,0,U,55963,999,17859,-.647436E-5,-.17E-5,0
STARLINK-5895,2023-037BC,2026-06-11T22:27:05.552352,15.10363357,.0004654,69.9969,19.0378,200.0068,160.0915,0,U,55964,999,17878,.72902652E-3,.11907E-3,0
STARLINK-5894,2023-037BD,2026-06-11T22:26:12.683328,14.98331757,.00028579,69.9997,26.6948,267.9069,92.1763,0,U,55965,999,17859,-.37388021E-4,-.539E-5,0
SES-18,2023-038A,2026-06-11T21:18:40.728960,1.00271143,.00002208,0.0248,287.1701,22.6944,166.9375,0,U,55970,999,1205,0,-.85E-6,0
SES-19,2023-038B,2026-06-11T17:44:14.489376,1.00272382,.00015317,0.0128,322.8160,122.6236,305.8090,0,U,55971,999,1203,0,.104E-5,0
TIANMU-1 03,2023-039A,2026-06-11T22:34:52.986720,15.47136632,.00042246,97.5227,336.7059,112.1193,248.0506,0,U,55973,999,18002,.27256871E-3,.1374E-3,0
TIANMU-1 04,2023-039B,2026-06-11T22:22:38.189280,15.47730901,.00047917,97.5165,335.8504,109.2263,250.9506,0,U,55974,999,18003,.28773894E-3,.14816E-3,0
TIANMU-1 05,2023-039C,2026-06-11T22:06:49.504320,15.47062715,.00038375,97.5208,336.3026,126.7064,233.4539,0,U,55975,999,18000,.27679764E-3,.13919E-3,0
